NORAD_CAT_ID,OBJECT_NAME,OBJECT_TYPE,EPOCH,MEAN_MOTION,ECCENTRICITY,INCLINATION,RA_OF_ASC_NODE,ARG_OF_PERICENTER,MEAN_ANOMALY,BSTAR,MEAN_MOTION_DOT,MEAN_MOTION_DDOT,TLE_LINE0,TLE_LINE1,TLE_LINE2,SEMIMAJOR_AXIS,PERIOD,APOGEE,PERIGEE,DECAYED
51873.0,STARLINK-3582,PAYLOAD,2024-01-27 23:22:10,15.08849546,0.0001359,53.2146,233.4994,82.0815,278.0331,0.00021175,3.085e-05,0.0,0 STARLINK-3582,1 51873U 22022X   24027.97372780  .00003085  00000-0  21175-3 0  9995,2 51873  53.2146 233.4994 0001359  82.0815 278.0331 15.08849546106611,6917.851,95.437,540.656,538.776,0.0
51873.0,STARLINK-3582,PAYLOAD,2024-01-28 18:26:48,15.08838197,0.0001586,53.2158,229.9294,112.4291,247.6869,2.2241e-05,6.6e-07,0.0,0 STARLINK-3582,1 51873U 22022X   24028.76861204  .00000066  00000-0  22241-4 0  9999,2 51873  53.2158 229.9294 0001586 112.4291 247.6869 15.08838197106736,6917.886,95.438,540.848,538.654,0.0
51873.0,STARLINK-3582,PAYLOAD,2024-01-28 23:12:57,15.08837457,0.0001564,53.2157,229.0373,111.2363,248.8796,6.0176e-06,-1.92e-06,0.0,0 STARLINK-3582,1 51873U 22022X   24028.96733253 -.00000192  00000-0  60176-5 0  9994,2 51873  53.2157 229.0373 0001564 111.2363 248.8796 15.08837457106760,6917.888,95.438,540.835,538.671,0.0
51873.0,STARLINK-3582,PAYLOAD,2024-01-30 13:22:12,15.08843757,0.0001191,53.2158,221.9028,105.1483,254.9641,6.6781e-05,7.75e-06,0.0,0 STARLINK-3582,1 51873U 22022X   24030.55708934  .00000775  00000-0  66781-4 0  9993,2 51873  53.2158 221.9028 0001191 105.1483 254.9641 15.08843757107005,6917.869,95.437,540.558,538.91,0.0
51873.0,STARLINK-3582,PAYLOAD,2024-01-30 19:43:45,15.08835507,0.0001085,53.2161,220.7137,100.1476,259.9638,3.5497e-05,2.77e-06,0.0,0 STARLINK-3582,1 51873U 22022X   24030.82205620  .00000277  00000-0  35497-4 0  9994,2 51873  53.2161 220.7137 0001085 100.1476 259.9638 15.08835507107045,6917.894,95.438,540.51,539.009,0.0
51873.0,STARLINK-3582,PAYLOAD,2024-01-30 21:19:08,15.08834225,0.000107,53.216,220.416,98.3294,261.7819,2.1429e-05,5.3e-07,0.0,0 STARLINK-3582,1 51873U 22022X   24030.88829698  .00000053  00000-0  21429-4 0  9999,2 51873  53.2160 220.4160 0001070  98.3294 261.7819 15.08834225107056,6917.898,95.438,540.503,539.023,0.0
51873.0,STARLINK-3582,PAYLOAD,2024-01-31 21:09:55,15.08833379,0.0001093,53.2161,215.9514,85.6467,274.465,0.00010912,1.449e-05,0.0,0 STARLINK-3582,1 51873U 22022X   24031.88189636  .00001449  00000-0  10912-3 0  9995,2 51873  53.2161 215.9514 0001093  85.6467 274.4650 15.08833379107205,6917.901,95.438,540.522,539.01,0.0
51873.0,STARLINK-3582,PAYLOAD,2024-01-31 22:45:19,15.08833608,0.0001092,53.2161,215.656,90.2597,269.852,0.00010984,1.46e-05,0.0,0 STARLINK-3582,1 51873U 22022X   24031.94813668  .00001460  00000-0  10984-3 0  9993,2 51873  53.2161 215.6560 0001092  90.2597 269.8520 15.08833608107218,6917.9,95.438,540.52,539.009,0.0
51873.0,STARLINK-3582,PAYLOAD,2024-02-01 21:00:42,15.08841971,0.0001111,53.2161,211.4934,86.3872,273.7247,0.00015548,2.188e-05,0.0,0 STARLINK-3582,1 51873U 22022X   24032.87549341  .00002188  00000-0  15548-3 0  9999,2 51873  53.2161 211.4934 0001111  86.3872 273.7247 15.08841971107358,6917.874,95.437,540.508,538.971,0.0
51873.0,STARLINK-3582,PAYLOAD,2024-02-02 20:51:29,15.08845545,0.0001223,53.2164,207.033,80.4567,279.6563,9.0862e-05,1.159e-05,0.0,0 STARLINK-3582,1 51873U 22022X   24033.86909323  .00001159  00000-0  90862-4 0  9999,2 51873  53.2164 207.0330 0001223  80.4567 279.6563 15.08845545107506,6917.863,95.437,540.574,538.882,0.0
51873.0,STARLINK-3582,PAYLOAD,2024-02-03 11:09:58,15.08840142,0.0001311,53.2166,204.356,81.8603,278.2538,2.7386e-05,1.48e-06,0.0,0 STARLINK-3582,1 51873U 22022X   24034.46525857  .00000148  00000-0  27386-4 0  9990,2 51873  53.2166 204.3560 0001311  81.8603 278.2538 15.08840142107591,6917.88,95.438,540.652,538.838,0.0
51873.0,STARLINK-3582,PAYLOAD,2024-02-03 17:31:30,15.08842056,0.0001337,53.2166,203.1674,79.8295,280.2848,4.9048e-05,4.93e-06,0.0,0 STARLINK-3582,1 51873U 22022X   24034.73021646  .00000493  00000-0  49048-4 0  9999,2 51873  53.2166 203.1674 0001337  79.8295 280.2848 15.08842056107634,6917.874,95.437,540.664,538.814,0.0
51873.0,STARLINK-3582,PAYLOAD,2024-02-04 14:11:31,15.08843318,0.0001201,53.2161,199.3013,96.7547,263.3582,6.5959e-05,7.62e-06,0.0,0 STARLINK-3582,1 51873U 22022X   24035.59133343  .00000762  00000-0  65959-4 0  9990,2 51873  53.2161 199.3013 0001201  96.7547 263.3582 15.08843318107763,6917.87,95.437,540.566,538.904,0.0
51873.0,STARLINK-3582,PAYLOAD,2024-02-04 20:33:03,15.08846456,0.0001356,53.2169,198.1115,96.8512,263.2635,9.5266e-05,1.229e-05,0.0,0 STARLINK-3582,1 51873U 22022X   24035.85628982  .00001229  00000-0  95266-4 0  9990,2 51873  53.2169 198.1115 0001356  96.8512 263.2635 15.08846456107804,6917.861,95.437,540.664,538.788,0.0
51873.0,STARLINK-3582,PAYLOAD,2024-02-05 14:02:18,15.08837525,0.0001373,53.2168,194.8398,93.5522,266.5627,2.3664e-05,8.9e-07,0.0,0 STARLINK-3582,1 51873U 22022X   24036.58493852  .00000089  00000-0  23664-4 0  9993,2 51873  53.2168 194.8398 0001373  93.5522 266.5627 15.08837525107919,6917.888,95.438,540.703,538.803,0.0
51873.0,STARLINK-3582,PAYLOAD,2024-02-05 17:13:04,15.08837558,0.0001352,53.217,194.245,94.1179,265.9967,1.5671e-05,-3.9e-07,0.0,0 STARLINK-3582,1 51873U 22022X   24036.71741847 -.00000039  00000-0  15671-4 0  9993,2 51873  53.2170 194.2450 0001352  94.1179 265.9967 15.08837558107935,6917.888,95.438,540.688,538.818,0.0
51873.0,STARLINK-3582,PAYLOAD,2024-02-06 13:53:05,15.08838916,0.0001393,53.2173,190.3783,102.9754,257.1393,1.2241e-05,-9.3e-07,0.0,0 STARLINK-3582,1 51873U 22022X   24037.57853858 -.00000093  00000-0  12241-4 0  9994,2 51873  53.2173 190.3783 0001393 102.9754 257.1393 15.08838916108066,6917.884,95.438,540.712,538.785,0.0
51873.0,STARLINK-3582,PAYLOAD,2024-02-06 17:03:51,15.08844082,0.0001322,53.2168,189.7824,95.533,264.5813,3.3562e-05,2.46e-06,0.0,0 STARLINK-3582,1 51873U 22022X   24037.71101493  .00000246  00000-0  33562-4 0  9999,2 51873  53.2168 189.7824 0001322  95.5330 264.5813 15.08844082108089,6917.868,95.437,540.647,538.818,0.0
51873.0,STARLINK-3582,PAYLOAD,2024-02-07 13:43:53,15.08842649,0.0001575,53.2176,185.9238,114.4454,245.6702,-4.4263e-05,-9.92e-06,0.0,0 STARLINK-3582,1 51873U 22022X   24038.57214135 -.00000992  00000-0 -44263-4 0  9992,2 51873  53.2176 185.9238 0001575 114.4454 245.6702 15.08842649108212,6917.872,95.437,540.827,538.648,0.0
51873.0,STARLINK-3582,PAYLOAD,2024-02-07 15:19:16,15.08836278,0.0001426,53.2174,185.6254,103.0233,257.0918,4.308e-05,3.98e-06,0.0,0 STARLINK-3582,1 51873U 22022X   24038.63838263  .00000398  00000-0  43080-4 0  9997,2 51873  53.2174 185.6254 0001426 103.0233 257.0918 15.08836278108227,6917.892,95.438,540.743,538.77,0.0
51873.0,STARLINK-3582,PAYLOAD,2024-02-08 13:34:41,15.08830147,0.0001327,53.2168,181.4602,94.1066,266.0077,1.1831e-05,-1e-06,0.0,0 STARLINK-3582,1 51873U 22022X   24039.56575280 -.00000100  00000-0  11831-4 0  9998,2 51873  53.2168 181.4602 0001327  94.1066 266.0077 15.08830147108365,6917.911,95.438,540.694,538.857,0.0
51873.0,STARLINK-3582,PAYLOAD,2024-02-08 18:20:50,15.08835063,0.0001569,53.2168,180.5655,92.5218,267.5953,3.6668e-05,2.96e-06,0.0,0 STARLINK-3582,1 51873U 22022X   24039.76447009  .00000296  00000-0  36668-4 0  9997,2 51873  53.2168 180.5655 0001569  92.5218 267.5953 15.08835063108396,6917.895,95.438,540.846,538.675,0.0
51873.0,STARLINK-3582,PAYLOAD,2024-02-09 13:25:27,15.08837642,0.0001435,53.2168,176.9987,75.91,284.2051,0.00013978,1.937e-05,0.0,0 STARLINK-3582,1 51873U 22022X   24040.55934744  .00001937  00000-0  13978-3 0  9994,2 51873  53.2168 176.9987 0001435  75.9100 284.2051 15.08837642108514,6917.888,95.438,540.745,538.76,0.0
51873.0,STARLINK-3582,PAYLOAD,2024-02-09 16:36:13,15.08851517,0.000183,53.2175,176.4067,112.1635,247.9552,4.75e-05,4.68e-06,0.0,0 STARLINK-3582,1 51873U 22022X   24040.69182108  .00000468  00000-0  47500-4 0  9995,2 51873  53.2175 176.4067 0001830 112.1635 247.9552 15.08851517108533,6917.845,95.437,540.976,538.444,0.0
51873.0,STARLINK-3582,PAYLOAD,2024-02-10 08:30:05,15.08846342,0.0001449,53.2155,173.4365,79.9447,280.1709,0.00011185,1.493e-05,0.0,0 STARLINK-3582,1 51873U 22022X   24041.35422498  .00001493  00000-0  11185-3 0  9996,2 51873  53.2155 173.4365 0001449  79.9447 280.1709 15.08846342108630,6917.861,95.437,540.728,538.724,0.0
51873.0,STARLINK-3582,PAYLOAD,2024-02-10 13:16:14,15.08844102,0.0001491,53.2162,172.5424,78.3959,281.72,9.6826e-05,1.254e-05,0.0,0 STARLINK-3582,1 51873U 22022X   24041.55294677  .00001254  00000-0  96826-4 0  9995,2 51873  53.2162 172.5424 0001491  78.3959 281.7200 15.08844102108660,6917.868,95.437,540.764,538.701,0.0
51873.0,STARLINK-3582,PAYLOAD,2024-02-10 18:02:23,15.08853774,0.0001346,53.2168,171.6462,93.6066,266.508,0.00016077,2.273e-05,0.0,0 STARLINK-3582,1 51873U 22022X   24041.75165651  .00002273  00000-0  16077-3 0  9997,2 51873  53.2168 171.6462 0001346  93.6066 266.5080 15.08853774108691,6917.838,95.437,540.634,538.772,0.0
51873.0,STARLINK-3582,PAYLOAD,2024-02-11 08:20:52,15.08843903,0.0001737,53.2162,168.9764,65.4491,294.6682,-8.6636e-06,-4.26e-06,0.0,0 STARLINK-3582,1 51873U 22022X   24042.34782849 -.00000426  00000-0 -86636-5 0  9997,2 51873  53.2162 168.9764 0001737  65.4491 294.6682 15.08843903108785,6917.868,95.437,540.935,538.532,0.0
51873.0,STARLINK-3582,PAYLOAD,2024-02-11 14:42:24,15.08850997,0.0001557,53.2168,167.7848,88.6843,271.4327,-2.4182e-05,-6.73e-06,0.0,0 STARLINK-3582,1 51873U 22022X   24042.61278203 -.00000673  00000-0 -24182-4 0  9992,2 51873  53.2168 167.7848 0001557  88.6843 271.4327 15.08850997108824,6917.847,95.437,540.789,538.635,0.0
51873.0,STARLINK-3582,PAYLOAD,2024-02-12 12:57:47,15.08846897,0.0001579,53.2178,163.621,102.3602,257.7567,5.6674e-05,6.14e-06,0.0,0 STARLINK-3582,1 51873U 22022X   24043.54013880  .00000614  00000-0  56674-4 0  9997,2 51873  53.2178 163.6210 0001579 102.3602 257.7567 15.08846897108966,6917.859,95.437,540.817,538.632,0.0
